Total gap duration: 6 days, 21:52:01.812600
STARLINK-3507
1 51753U 22016AR  24101.53517507  .00002597  00000+0  18119-3 0  9998
2 51753  53.2183 203.2683 0001517  89.3930 270.7236 15.08839491119371
Total gap duration: 6 days, 19:49:14.823588
STARLINK-2618
1 48693U 21044BH  24101.36272723  .00006261  00000+0  43880-3 0  9991
2 48693  53.0550 336.5272 0001280  84.3868 275.7267 15.06400947159856
Total gap duration: 6 days, 19:39:30.783871
STARLINK-1346
1 45560U 20025AF  24101.04903571  .00011779  00000+0  80806-3 0  9995
2 45560  53.0549 333.3611 0001410  95.6143 264.5006 15.06412384219607
Total gap duration: 6 days, 19:41:25.072301
STARLINK-1910
1 46748U 20074K   24101.58113631  .00007899  00000+0  54821-3 0  9993
2 46748  53.0545 215.5484 0001108  69.3244 290.7863 15.06425759191471
Total gap duration: 6 days, 19:47:19.025351
STARLINK-5571
1 55380U 23013BB  24100.75247191  .00000544  00000+0  55325-4 0  9999
2 55380  43.0023 124.9315 0001170 276.2014  83.8695 15.02535470 66723
Total gap duration: 6 days, 21:08:37.733102
STARLINK-3175
1 51140U 22005AN  24100.55720488  .00002310  00000+0  16317-3 0  9992
2 51140  53.2174 197.6605 0001352  95.8093 264.3053 15.08842532123191
Total gap duration: 6 days, 19:49:51.502130
STARLINK-30595
1 58111U 23161Q   24101.42944938  .00030985  00000+0  11258-2 0  9993
2 58111  53.1162 166.9237 0001390  87.1663 272.9495 15.28043539 27416
Total gap duration: 6 days, 20:05:23.694777
STARLINK-6060
1 56794U 23078AD  24101.51141878 -.00000488  00000+0 -33129-4 0  9997
2 56794  69.9983 284.7889 0002993 270.5931  89.4885 14.98328117 48854
Total gap duration: 6 days, 20:44:24.781453
STARLINK-30385
1 57778U 23134H   24101.45170255  .00002735  00000+0  21739-3 0  9995
2 57778  43.0055  19.0705 0001251 275.2813  84.7886 15.02546423 34428
Total gap duration: 6 days, 21:08:19.763375
STARLINK-3969
1 52551U 22051U   24100.77429115 -.00000134  00000+0  96605-5 0  9990
2 52551  53.2189  26.6711 0001765  81.8410 278.2783 15.08845355105931
Total gap duration: 6 days, 19:48:16.506788
